NORAD_CAT_ID,OBJECT_NAME,OBJECT_TYPE,EPOCH,MEAN_MOTION,ECCENTRICITY,INCLINATION,RA_OF_ASC_NODE,ARG_OF_PERICENTER,MEAN_ANOMALY,BSTAR,MEAN_MOTION_DOT,MEAN_MOTION_DDOT,TLE_LINE0,TLE_LINE1,TLE_LINE2,SEMIMAJOR_AXIS,PERIOD,APOGEE,PERIGEE,DECAYED
51971.0,STARLINK-3669,PAYLOAD,2024-04-11 18:35:07,15.05601812,0.000138,53.0552,274.9477,98.2435,261.871,0.00061152,8.646e-05,0.0,0 STARLINK-3669,1 51971U 22025R   24102.77439102  .00008646  00000-0  61152-3 0  9998,2 51971  53.0552 274.9477 0001380  98.2435 261.8710 15.05601812115942,6927.796,95.643,550.617,548.705,0.0
51971.0,STARLINK-3669,PAYLOAD,2024-04-12 04:08:39,15.05604311,0.0001002,53.0522,273.1607,86.5962,273.5142,0.0004339,6.052e-05,0.0,0 STARLINK-3669,1 51971U 22025R   24103.17268255  .00006052  00000-0  43390-3 0  9995,2 51971  53.0522 273.1607 0001002  86.5962 273.5142 15.05604311116005,6927.788,95.643,550.347,548.959,0.0
51971.0,STARLINK-3669,PAYLOAD,2024-04-12 15:17:48,15.05593874,0.0002236,53.0551,271.0777,84.5684,275.5559,0.00014983,1.905e-05,0.0,0 STARLINK-3669,1 51971U 22025R   24103.63736597  .00001905  00000-0  14983-3 0  9993,2 51971  53.0551 271.0777 0002236  84.5684 275.5559 15.05593874117186,6927.82,95.643,551.234,548.136,0.0
51971.0,STARLINK-3669,PAYLOAD,2024-04-13 18:22:50,15.05587727,9.72e-05,53.054,266.017,82.8601,277.2498,0.00019528,2.568e-05,0.0,0 STARLINK-3669,1 51971U 22025R   24104.76586624  .00002568  00000-0  19528-3 0  9998,2 51971  53.0540 266.0170 0000972  82.8601 277.2498 15.05587727116247,6927.839,95.644,550.378,549.031,0.0
51971.0,STARLINK-3669,PAYLOAD,2024-04-14 10:18:46,15.0558071,0.0001068,53.0533,263.0405,85.5458,274.5652,7.9184e-05,8.75e-06,0.0,0 STARLINK-3669,1 51971U 22025R   24105.42970136  .00000875  00000-0  79184-4 0  9991,2 51971  53.0533 263.0405 0001068  85.5458 274.5652 15.05580710117455,6927.861,95.644,550.466,548.986,0.0
51971.0,STARLINK-3669,PAYLOAD,2024-04-14 16:41:07,15.05586985,0.0001289,53.0524,261.8523,75.9874,284.1258,0.00023308,3.119e-05,0.0,0 STARLINK-3669,1 51971U 22025R   24105.69523061  .00003119  00000-0  23308-3 0  9991,2 51971  53.0524 261.8523 0001289  75.9874 284.1258 15.05586985116382,6927.841,95.644,550.599,548.813,0.0
51971.0,STARLINK-3669,PAYLOAD,2024-04-15 13:23:49,15.05589365,0.0001403,53.0522,257.9832,73.8778,286.2365,0.00042501,5.92e-05,0.0,0 STARLINK-3669,1 51971U 22025R   24106.55820740  .00005920  00000-0  42501-3 0  9999,2 51971  53.0522 257.9832 0001403  73.8778 286.2365 15.05589365116519,6927.834,95.644,550.671,548.727,0.0
51971.0,STARLINK-3669,PAYLOAD,2024-04-15 19:46:10,15.05595917,0.0001482,53.0531,256.7924,80.6329,279.4827,0.00052956,7.448e-05,0.0,0 STARLINK-3669,1 51971U 22025R   24106.82373577  .00007448  00000-0  52956-3 0  9992,2 51971  53.0531 256.7924 0001482  80.6329 279.4827 15.05595917117667,6927.814,95.643,550.706,548.652,0.0
51971.0,STARLINK-3669,PAYLOAD,2024-04-16 13:17:40,15.05588934,0.000183,53.0535,253.5169,117.0492,243.0684,0.00027326,3.705e-05,0.0,0 STARLINK-3669,1 51971U 22025R   24107.55394673  .00003705  00000-0  27326-3 0  9998,2 51971  53.0535 253.5169 0001830 117.0492 243.0684 15.05588934117771,6927.835,95.644,550.968,548.433,0.0
51971.0,STARLINK-3669,PAYLOAD,2024-04-16 16:28:51,15.05597129,0.0001414,53.0535,252.9234,93.6723,266.4428,0.0004654,6.511e-05,0.0,0 STARLINK-3669,1 51971U 22025R   24107.68671104  .00006511  00000-0  46540-3 0  9996,2 51971  53.0535 252.9234 0001414  93.6723 266.4428 15.05597129116681,6927.81,95.643,550.655,548.696,0.0
51971.0,STARLINK-3669,PAYLOAD,2024-04-17 13:11:34,15.05568257,0.0001498,53.053,249.0509,87.9415,272.1745,-8.8086e-06,-4.08e-06,0.0,0 STARLINK-3669,1 51971U 22025R   24108.54970059 -.00000408  00000-0 -88086-5 0  9997,2 51971  53.0530 249.0509 0001498  87.9415 272.1745 15.05568257117928,6927.899,95.645,550.802,548.726,0.0
51971.0,STARLINK-3669,PAYLOAD,2024-04-17 14:47:09,15.05569161,0.0001549,53.0524,248.7524,81.5782,278.5382,-6.1412e-05,-1.174e-05,0.0,0 STARLINK-3669,1 51971U 22025R   24108.61608444 -.00001174  00000-0 -61412-4 0  9995,2 51971  53.0524 248.7524 0001549  81.5782 278.5382 15.05569161116828,6927.896,95.645,550.834,548.688,0.0
51971.0,STARLINK-3669,PAYLOAD,2024-04-18 13:05:26,15.05581088,0.0001485,53.0532,244.5866,83.1435,276.9723,0.00019604,2.578e-05,0.0,0 STARLINK-3669,1 51971U 22025R   24109.54544543  .00002578  00000-0  19604-3 0  9999,2 51971  53.0532 244.5866 0001485  83.1435 276.9723 15.05581088118074,6927.86,95.644,550.753,548.696,0.0
51971.0,STARLINK-3669,PAYLOAD,2024-04-18 16:16:37,15.05589342,0.0001633,53.0535,243.9926,68.5873,291.5289,0.00041199,5.73e-05,0.0,0 STARLINK-3669,1 51971U 22025R   24109.67820931  .00005730  00000-0  41199-3 0  9998,2 51971  53.0535 243.9926 0001633  68.5873 291.5289 15.05589342116984,6927.834,95.644,550.831,548.568,0.0
51971.0,STARLINK-3669,PAYLOAD,2024-04-19 12:59:18,15.05584113,0.0002025,53.0542,240.1255,61.1025,299.0166,0.00026861,3.637e-05,0.0,0 STARLINK-3669,1 51971U 22025R   24110.54119199  .00003637  00000-0  26861-3 0  9996,2 51971  53.0542 240.1255 0002025  61.1025 299.0166 15.05584113118227,6927.85,95.644,551.118,548.312,0.0
51971.0,STARLINK-3669,PAYLOAD,2024-04-19 14:34:54,15.05587121,0.0002012,53.0531,239.8232,67.7504,292.3698,0.00037205,5.146e-05,0.0,0 STARLINK-3669,1 51971U 22025R   24110.60757315  .00005146  00000-0  37205-3 0  9992,2 51971  53.0531 239.8232 0002012  67.7504 292.3698 15.05587121117121,6927.841,95.644,551.1,548.312,0.0
51971.0,STARLINK-3669,PAYLOAD,2024-04-19 16:10:29,15.05606022,0.0001678,53.0535,239.5281,111.3191,248.7977,0.00083763,0.00011954,0.0,0 STARLINK-3669,1 51971U 22025R   24110.67394929  .00011954  00000-0  83763-3 0  9991,2 51971  53.0535 239.5281 0001678 111.3191 248.7977 15.05606022118242,6927.783,95.643,550.811,548.486,0.0
51971.0,STARLINK-3669,PAYLOAD,2024-04-20 12:53:10,15.05551047,0.000141,53.0537,235.659,54.1541,305.9578,-0.0010653,-0.00015754,0.0,0 STARLINK-3669,1 51971U 22025R   24111.53692446 -.00015754  00000-0 -10653-2 0  9993,2 51971  53.0537 235.6590 0001410  54.1541 305.9578 15.05551047118374,6927.952,95.646,550.794,548.84,0.0
51971.0,STARLINK-3669,PAYLOAD,2024-04-20 14:28:45,15.05554824,0.0001387,53.0539,235.3581,79.8657,280.2488,-0.00088636,-0.0001316,0.0,0 STARLINK-3669,1 51971U 22025R   24111.60330675 -.00013160  00000-0 -88636-3 0  9990,2 51971  53.0539 235.3581 0001387  79.8657 280.2488 15.05554824117277,6927.94,95.646,550.766,548.844,0.0
51971.0,STARLINK-3669,PAYLOAD,2024-04-20 17:39:56,15.05553402,0.0001381,53.0543,234.7621,95.2205,264.8942,-0.00082221,-0.00012229,0.0,0 STARLINK-3669,1 51971U 22025R   24111.73607483 -.00012229  00000-0 -82221-3 0  9997,2 51971  53.0543 234.7621 0001381  95.2205 264.8942 15.05553402117291,6927.944,95.646,550.766,548.853,0.0
51971.0,STARLINK-3669,PAYLOAD,2024-04-21 14:22:39,15.05570655,0.0001972,53.0543,230.904,83.5946,276.5267,0.00045622,6.372e-05,0.0,0 STARLINK-3669,1 51971U 22025R   24112.59906754  .00006372  00000-0  45622-3 0  9999,2 51971  53.0543 230.9040 0001972  83.5946 276.5267 15.05570655117426,6927.892,95.645,551.123,548.39,0.0
51971.0,STARLINK-3669,PAYLOAD,2024-04-21 17:33:49,15.05589435,0.0001627,53.0548,230.2973,113.8609,246.255,0.00098951,0.0001417,0.0,0 STARLINK-3669,1 51971U 22025R   24112.73182777  .00014170  00000-0  98951-3 0  9994,2 51971  53.0548 230.2973 0001627 113.8609 246.2550 15.05589435118559,6927.834,95.644,550.826,548.572,0.0
51971.0,STARLINK-3669,PAYLOAD,2024-04-22 11:05:19,15.0559283,0.0001971,53.0546,227.0226,125.264,234.8533,0.00051593,7.248e-05,0.0,0 STARLINK-3669,1 51971U 22025R   24113.46203653  .00007248  00000-0  51593-3 0  9991,2 51971  53.0546 227.0226 0001971 125.2640 234.8533 15.05592830118665,6927.824,95.643,551.054,548.323,0.0
51971.0,STARLINK-3669,PAYLOAD,2024-04-22 17:27:41,15.05612723,0.0001235,53.0541,225.8324,114.9583,245.1534,0.0010289,0.00014756,0.0,0 STARLINK-3669,1 51971U 22025R   24113.72756051  .00014756  00000-0  10289-2 0  9993,2 51971  53.0541 225.8324 0001235 114.9583 245.1534 15.05612723118704,6927.762,95.642,550.483,548.772,0.0
51971.0,STARLINK-3669,PAYLOAD,2024-04-23 12:34:46,15.05594916,0.000203,53.0544,222.2605,112.373,247.7474,7.5697e-05,8.24e-06,0.0,0 STARLINK-3669,1 51971U 22025R   24114.52415219  .00000824  00000-0  75697-4 0  9997,2 51971  53.0544 222.2605 0002030 112.3730 247.7474 15.05594916118827,6927.817,95.643,551.088,548.276,0.0
51971.0,STARLINK-3669,PAYLOAD,2024-04-24 12:28:38,15.05588524,0.0001598,53.0534,217.794,81.633,278.484,-6.9403e-05,-1.291e-05,0.0,0 STARLINK-3669,1 51971U 22025R   24115.51989277 -.00001291  00000-0 -69403-4 0  9996,2 51971  53.0534 217.7940 0001598  81.6330 278.4840 15.05588524118971,6927.837,95.644,550.809,548.595,0.0
51971.0,STARLINK-3669,PAYLOAD,2024-04-24 14:04:14,15.05594044,0.0001471,53.0535,217.4981,81.0124,279.1031,-6.3972e-05,-1.212e-05,0.0,0 STARLINK-3669,1 51971U 22025R   24115.58627368 -.00001212  00000-0 -63972-4 0  9991,2 51971  53.0535 217.4981 0001471  81.0124 279.1031 15.05594044117871,6927.82,95.643,550.704,548.666,0.0
51971.0,STARLINK-3669,PAYLOAD,2024-04-25 12:22:31,15.05581253,0.0002282,53.055,213.3395,57.7679,302.3531,3.9819e-05,3.01e-06,0.0,0 STARLINK-3669,1 51971U 22025R   24116.51564508  .00000301  00000-0  39819-4 0  9990,2 51971  53.0550 213.3395 0002282  57.7679 302.3531 15.05581253119120,6927.859,95.644,551.305,548.143,0.0
51971.0,STARLINK-3669,PAYLOAD,2024-04-25 13:58:06,15.05596678,0.000171,53.054,213.0437,89.7257,270.3928,0.00027484,3.729e-05,0.0,0 STARLINK-3669,1 51971U 22025R   24116.58201946  .00003729  00000-0  27484-3 0  9992,2 51971  53.0540 213.0437 0001710  89.7257 270.3928 15.05596678118024,6927.812,95.643,550.861,548.492,0.0
51971.0,STARLINK-3669,PAYLOAD,2024-04-26 12:16:23,15.05583919,0.0001646,53.054,208.8736,92.3369,267.7808,0.00010133,1.197e-05,0.0,0 STARLINK-3669,1 51971U 22025R   24117.51138342  .00001197  00000-0  10133-3 0  9995,2 51971  53.0540 208.8736 0001646  92.3369 267.7808 15.05583919119279,6927.851,95.644,550.856,548.576,0.0
